[{"OBJECT_NAME":"STARLINK-31758","OBJECT_ID":"2024-080W","EPOCH":"2026-03-09T06:37:05.994048","MEAN_MOTION":15.27557412,"ECCENTRICITY":0.0002114,"INCLINATION":43.002,"RA_OF_ASC_NODE":36.4146,"ARG_OF_PERICENTER":253.3601,"MEAN_ANOMALY":106.7019,"EPHEMERIS_TYPE":0,"CLASSIFICATION_TYPE":"U","NORAD_CAT_ID":59621,"ELEMENT_SET_NO":999,"REV_AT_EPOCH":10451,"BSTAR":0.00019416381,"MEAN_MOTION_DOT":5.081e-5,"MEAN_MOTION_DDOT":0},{"OBJECT_NAME":"OBJECT H","OBJECT_ID":"2025-055H","EPOCH":"2026-03-09T23:29:50.051328","MEAN_MOTION":15.30330066,"ECCENTRICITY":0.00075967,"INCLINATION":97.636,"RA_OF_ASC_NODE":211.9572,"ARG_OF_PERICENTER":140.4354,"MEAN_ANOMALY":219.7441,"EPHEMERIS_TYPE":0,"CLASSIFICATION_TYPE":"U","NORAD_CAT_ID":63298,"ELEMENT_SET_NO":999,"REV_AT_EPOCH":5423,"BSTAR":0.0015582864,"MEAN_MOTION_DOT":0.00045901,"MEAN_MOTION_DDOT":0}]
